# 2012 1 1 12 0 0.000000 35.000000 -120.000000 5.0000 0.000000 0.000000 0.000000 0.000000 1
NM.PENM   2.500  1.00 P
NM.PENM   4.500  1.00 S
TA.U44A   1.800  1.00 P
TA.U44A   3.800  1.00 S
# 2012 1 1 12 1 0.000000 35.010000 -120.010000 5.1000 0.000000 0.000000 0.000000 0.000000 2
NM.PENM   2.480  1.00 P
NM.PENM   4.520  1.00 S
TA.U44A   1.750  1.00 P
TA.U44A   3.850  1.00 S