# 2025 2 22 0 15 49.640000 35.238833 -97.769667 6.2300 0.634788 0.282843 0.400000 0.000000 1
O2.TUTT   1.458  1.00 P
O2.SC01   2.105  1.00 P
O2.TUTT   2.547  1.00 S
O2.SC01   3.650  1.00 S
# 2025 2 22 0 19 20.920000 35.238500 -97.766333 6.4700 0.194786 0.353553 0.500000 0.000000 2
O2.TUTT   1.495  1.00 P
O2.SC01   2.164  1.00 P
O2.TUTT   2.592  1.00 S
O2.SC01   3.739  1.00 S