# 2025 2 22 0 19 20.920000 35.238500 -97.766333 6.4700 0.194786 0.353553 0.500000 0.000000 1
O2.TUTT   1.495  1.00 P
O2.SC01   2.164  1.00 P
O2.TUTT   2.592  1.00 S
O2.SC01   3.739  1.00 S