# 2025 2 22 0 15 49.640000 35.238833 -97.769667 6.2300 0.634788 0.282843 0.400000 0.000000 1
O2.TUTT   1.458  1.00 P
O2.SC01   2.105  1.00 P
O2.TUTT   2.547  1.00 S
O2.SC01   3.650  1.00 S